*******************************************************************************
Ephemeris / WWW_USER Mon Mar 24 07:43:17 2025 Pasadena, USA      / Horizons    
*******************************************************************************
Target body name: (2018 TC)                       {source: JPL#10}
Center body name: Earth (399)                     {source: DE441}
Center-site name: Mauna Kea
*******************************************************************************
Start time      : A.D. 2019-Jan-22 04:17:00.0000 UT      
Stop  time      : A.D. 2019-Jan-22 16:49:00.0000 UT      
Step-size       : 1 minutes
*******************************************************************************
Target pole/equ : undefined
Target radii    : undefined                                                    
Center geodetic : 204.5278, 19.8260847, 4.21024   {E-lon(deg),Lat(deg),Alt(km)}
Center cylindric: 204.5278, 6006.35451, 2151.0229 {E-lon(deg),Dxy(km),Dz(km)}
Center pole/equ : ITRF93                          {East-longitude positive}
Center radii    : 6378.137, 6378.137, 6356.752 km {Equator_a, b, pole_c}       
Target primary  : Sun
Vis. interferer : MOON (R_eq= 1737.400) km        {source: DE441}
Rel. light bend : Sun                             {source: DE441}
Rel. lght bnd GM: 1.3271E+11 km^3/s^2                                          
Small-body perts: Yes                             {source: SB441-N16}
Atmos refraction: NO (AIRLESS)
RA format       : HMS
Time format     : CAL 
Calendar mode   : Mixed Julian/Gregorian
RTS-only print  : NO       
EOP file        : eop.250321.p250617                                           
EOP coverage    : DATA-BASED 1962-JAN-20 TO 2025-MAR-21. PREDICTS-> 2025-JUN-16
Units conversion: 1 au= 149597870.700 km, c= 299792.458 km/s, 1 day= 86400.0 s 
Table cut-offs 1: Elevation (-90.0deg=NO ),Airmass (>38.000=NO), Daylight (YES)
Table cut-offs 2: Solar elongation (  0.0,180.0=NO ),Local Hour Angle( 0.0=NO )
Table cut-offs 3: RA/DEC angular rate (     0.0=NO )                           
*******************************************************************************
Initial IAU76/J2000 heliocentric ecliptic osculating elements (au, days, deg.):
  EPOCH=  2458399.5 ! 2018-Oct-08.00 (TDB)         Residual RMS= .20211        
   EC= .2253304451868516   QR= .9525668516843322   TP= 2458354.2554697809      
   OM= 188.9146441926015   W=  135.2493409557404   IN= 3.631837316097226       
  Equivalent ICRF heliocentric cartesian coordinates (au, au/d):
   X= 9.874490534016482E-01  Y= 2.414303737329446E-01  Z= 9.746991415829437E-02
  VX=-1.955204385424240E-03 VY= 1.722364762632024E-02 VZ= 6.197883797821973E-03
Asteroid physical parameters (km, seconds, rotational period in hours):        
   GM= n.a.                RAD= n.a.               ROTPER= n.a.                
   H= 26.6                 G= .150                 B-V= n.a.                   
                           ALBEDO= n.a.            STYP= n.a.                  
*******************************************************************************
 Date__(UT)__HR:MN     R.A._________(ICRF)_________DEC
******************************************************
$$SOE
 2019-Jan-22 14:32  m  03 32 44.013065 +11 23 14.66604
 2019-Jan-22 14:33  m  03 32 44.088453 +11 23 15.14270
 2019-Jan-22 14:34  m  03 32 44.163854 +11 23 15.61939
 2019-Jan-22 14:35  m  03 32 44.239268 +11 23 16.09610
 2019-Jan-22 14:36  m  03 32 44.314694 +11 23 16.57285
 2019-Jan-22 14:37  m  03 32 44.390133 +11 23 17.04962
 2019-Jan-22 14:38  m  03 32 44.465584 +11 23 17.52642
 2019-Jan-22 14:39  m  03 32 44.541048 +11 23 18.00325
 2019-Jan-22 14:40  m  03 32 44.616524 +11 23 18.48012
 2019-Jan-22 14:41  m  03 32 44.692012 +11 23 18.95701
 2019-Jan-22 14:42  m  03 32 44.767513 +11 23 19.43393
 2019-Jan-22 14:43  m  03 32 44.843026 +11 23 19.91088
 2019-Jan-22 14:44  m  03 32 44.918551 +11 23 20.38786
 2019-Jan-22 14:45  m  03 32 44.994088 +11 23 20.86488
 2019-Jan-22 14:46  m  03 32 45.069637 +11 23 21.34192
 2019-Jan-22 14:47  m  03 32 45.145199 +11 23 21.81900
 2019-Jan-22 14:48  m  03 32 45.220772 +11 23 22.29610
 2019-Jan-22 14:49  m  03 32 45.296357 +11 23 22.77324
 2019-Jan-22 14:50  m  03 32 45.371954 +11 23 23.25040
 2019-Jan-22 14:51  m  03 32 45.447563 +11 23 23.72760
 2019-Jan-22 14:52  m  03 32 45.523184 +11 23 24.20483
 2019-Jan-22 14:53  m  03 32 45.598816 +11 23 24.68210
 2019-Jan-22 14:54  m  03 32 45.674461 +11 23 25.15939
 2019-Jan-22 14:55  m  03 32 45.750116 +11 23 25.63672
 2019-Jan-22 14:56  m  03 32 45.825784 +11 23 26.11407
 2019-Jan-22 14:57  m  03 32 45.901463 +11 23 26.59147
 2019-Jan-22 14:58  m  03 32 45.977153 +11 23 27.06889
 2019-Jan-22 14:59  m  03 32 46.052855 +11 23 27.54634
 2019-Jan-22 15:00  m  03 32 46.128568 +11 23 28.02383
 2019-Jan-22 15:01  m  03 32 46.204292 +11 23 28.50135
 2019-Jan-22 15:02  m  03 32 46.280028 +11 23 28.97891
 2019-Jan-22 15:03  m  03 32 46.355775 +11 23 29.45649
 2019-Jan-22 15:04  m  03 32 46.431533 +11 23 29.93411
 2019-Jan-22 15:05  m  03 32 46.507302 +11 23 30.41177
 2019-Jan-22 15:06  m  03 32 46.583082 +11 23 30.88945
 2019-Jan-22 15:07  m  03 32 46.658874 +11 23 31.36717
 2019-Jan-22 15:08  m  03 32 46.734676 +11 23 31.84493
 2019-Jan-22 15:09  m  03 32 46.810489 +11 23 32.32271
 2019-Jan-22 15:10  m  03 32 46.886313 +11 23 32.80054
 2019-Jan-22 15:11  m  03 32 46.962147 +11 23 33.27839
 2019-Jan-22 15:12  m  03 32 47.037993 +11 23 33.75628
 2019-Jan-22 15:13  m  03 32 47.113849 +11 23 34.23421
 2019-Jan-22 15:14  m  03 32 47.189715 +11 23 34.71217
 2019-Jan-22 15:15  m  03 32 47.265592 +11 23 35.19016
 2019-Jan-22 15:16  m  03 32 47.341480 +11 23 35.66819
 2019-Jan-22 15:17  m  03 32 47.417378 +11 23 36.14625
 2019-Jan-22 15:18  m  03 32 47.493287 +11 23 36.62435
 2019-Jan-22 15:19  m  03 32 47.569206 +11 23 37.10249
 2019-Jan-22 15:20  m  03 32 47.645135 +11 23 37.58066
 2019-Jan-22 15:21  m  03 32 47.721074 +11 23 38.05886
 2019-Jan-22 15:22  m  03 32 47.797023 +11 23 38.53710
 2019-Jan-22 15:23  m  03 32 47.872983 +11 23 39.01538
 2019-Jan-22 15:24  m  03 32 47.948953 +11 23 39.49369
 2019-Jan-22 15:25  m  03 32 48.024932 +11 23 39.97204
 2019-Jan-22 15:26  m  03 32 48.100922 +11 23 40.45042
 2019-Jan-22 15:27  m  03 32 48.176921 +11 23 40.92884
 2019-Jan-22 15:28  m  03 32 48.252930 +11 23 41.40730
 2019-Jan-22 15:29  m  03 32 48.328949 +11 23 41.88579
 2019-Jan-22 15:30  m  03 32 48.404978 +11 23 42.36432
 2019-Jan-22 15:31  m  03 32 48.481016 +11 23 42.84289
 2019-Jan-22 15:32  m  03 32 48.557064 +11 23 43.32149
 2019-Jan-22 15:33  m  03 32 48.633121 +11 23 43.80013
 2019-Jan-22 15:34  m  03 32 48.709188 +11 23 44.27881
 2019-Jan-22 15:35  m  03 32 48.785265 +11 23 44.75752
 2019-Jan-22 15:36  m  03 32 48.861350 +11 23 45.23627
 2019-Jan-22 15:37  m  03 32 48.937445 +11 23 45.71506
 2019-Jan-22 15:38  m  03 32 49.013549 +11 23 46.19388
 2019-Jan-22 15:39  m  03 32 49.089662 +11 23 46.67275
 2019-Jan-22 15:40  m  03 32 49.165785 +11 23 47.15165
 2019-Jan-22 15:41  m  03 32 49.241916 +11 23 47.63059
 2019-Jan-22 15:42  m  03 32 49.318056 +11 23 48.10956
 2019-Jan-22 15:43 Am  03 32 49.394206 +11 23 48.58858
 2019-Jan-22 15:44 Am  03 32 49.470364 +11 23 49.06763
 2019-Jan-22 15:45 Am  03 32 49.546531 +11 23 49.54672
 2019-Jan-22 15:46 Am  03 32 49.622706 +11 23 50.02585
 2019-Jan-22 15:47 Am  03 32 49.698891 +11 23 50.50502
 2019-Jan-22 15:48 Am  03 32 49.775084 +11 23 50.98423
 2019-Jan-22 15:49 Am  03 32 49.851285 +11 23 51.46347
 2019-Jan-22 15:50 Am  03 32 49.927495 +11 23 51.94275
 2019-Jan-22 15:51 Am  03 32 50.003713 +11 23 52.42208
 2019-Jan-22 15:52 Am  03 32 50.079940 +11 23 52.90144
 2019-Jan-22 15:53 Am  03 32 50.156175 +11 23 53.38084
 2019-Jan-22 15:54 Am  03 32 50.232419 +11 23 53.86028
 2019-Jan-22 15:55 Am  03 32 50.308670 +11 23 54.33976
 2019-Jan-22 15:56 Am  03 32 50.384930 +11 23 54.81927
 2019-Jan-22 15:57 Am  03 32 50.461197 +11 23 55.29883
 2019-Jan-22 15:58 Am  03 32 50.537473 +11 23 55.77843
 2019-Jan-22 15:59 Am  03 32 50.613757 +11 23 56.25807
 2019-Jan-22 16:00 Am  03 32 50.690048 +11 23 56.73774
 2019-Jan-22 16:01 Am  03 32 50.766347 +11 23 57.21746
 2019-Jan-22 16:02 Am  03 32 50.842654 +11 23 57.69722
 2019-Jan-22 16:03 Am  03 32 50.918969 +11 23 58.17701
 2019-Jan-22 16:04 Am  03 32 50.995291 +11 23 58.65685
 2019-Jan-22 16:05 Am  03 32 51.071621 +11 23 59.13672
 2019-Jan-22 16:06 Am  03 32 51.147958 +11 23 59.61664
 2019-Jan-22 16:07 Am  03 32 51.224303 +11 24 00.09660
 2019-Jan-22 16:08 Am  03 32 51.300655 +11 24 00.57660
 2019-Jan-22 16:09 Am  03 32 51.377014 +11 24 01.05663
 2019-Jan-22 16:10 Nm  03 32 51.453381 +11 24 01.53671
 2019-Jan-22 16:11 Nm  03 32 51.529755 +11 24 02.01683
 2019-Jan-22 16:12 Nm  03 32 51.606136 +11 24 02.49699
 2019-Jan-22 16:13 Nm  03 32 51.682523 +11 24 02.97719
 2019-Jan-22 16:14 Nm  03 32 51.758918 +11 24 03.45744
 2019-Jan-22 16:15 Nm  03 32 51.835320 +11 24 03.93772
 2019-Jan-22 16:16 Nm  03 32 51.911728 +11 24 04.41804
 2019-Jan-22 16:17 Nm  03 32 51.988144 +11 24 04.89841
 2019-Jan-22 16:18 Nm  03 32 52.064566 +11 24 05.37882
 2019-Jan-22 16:19 Nm  03 32 52.140994 +11 24 05.85926
 2019-Jan-22 16:20 Nm  03 32 52.217430 +11 24 06.33975
 2019-Jan-22 16:21 Nm  03 32 52.293871 +11 24 06.82029
 2019-Jan-22 16:22 Nm  03 32 52.370319 +11 24 07.30086
 2019-Jan-22 16:23 Nm  03 32 52.446774 +11 24 07.78147
 2019-Jan-22 16:24 Nm  03 32 52.523235 +11 24 08.26213
 2019-Jan-22 16:25 Nm  03 32 52.599702 +11 24 08.74283
 2019-Jan-22 16:26 Nm  03 32 52.676175 +11 24 09.22357
 2019-Jan-22 16:27 Nm  03 32 52.752654 +11 24 09.70435
 2019-Jan-22 16:28 Nm  03 32 52.829140 +11 24 10.18517
 2019-Jan-22 16:29 Nm  03 32 52.905631 +11 24 10.66604
 2019-Jan-22 16:30 Nm  03 32 52.982128 +11 24 11.14695
 2019-Jan-22 16:31 Nm  03 32 53.058632 +11 24 11.62790
 2019-Jan-22 16:32 Nm  03 32 53.135140 +11 24 12.10889
 2019-Jan-22 16:33 Nm  03 32 53.211655 +11 24 12.58993
 2019-Jan-22 16:34 Nm  03 32 53.288175 +11 24 13.07101
